[{"OBJECT_NAME":"STARLINK-31332","OBJECT_ID":"2024-076C","EPOCH":"2026-03-09T05:18:37.753920","MEAN_MOTION":15.27582085,"ECCENTRICITY":0.0002172,"INCLINATION":43.0076,"RA_OF_ASC_NODE":11.4224,"ARG_OF_PERICENTER":266.0667,"MEAN_ANOMALY":93.9936,"EPHEMERIS_TYPE":0,"CLASSIFICATION_TYPE":"U","NORAD_CAT_ID":59566,"ELEMENT_SET_NO":999,"REV_AT_EPOCH":10643,"BSTAR":-3.0486869e-5,"MEAN_MOTION_DOT":-1.101e-5,"MEAN_MOTION_DDOT":0},{"OBJECT_NAME":"OBJECT BE","OBJECT_ID":"2025-313BE","EPOCH":"2026-03-09T16:43:59.380320","MEAN_MOTION":15.29801687,"ECCENTRICITY":0.00072083,"INCLINATION":97.3989,"RA_OF_ASC_NODE":145.3568,"ARG_OF_PERICENTER":335.3714,"MEAN_ANOMALY":24.7181,"EPHEMERIS_TYPE":0,"CLASSIFICATION_TYPE":"U","NORAD_CAT_ID":67482,"ELEMENT_SET_NO":999,"REV_AT_EPOCH":797,"BSTAR":0.0026504328,"MEAN_MOTION_DOT":0.00077178,"MEAN_MOTION_DDOT":0}]
