STARLINK-31332          
1 59566U 24076C   26068.22127030 -.00001101  00000+0 -30487-4 0  9999
2 59566  43.0076  11.4224 0002172 266.0667  93.9936 15.27582085106438
2025-313BE              
1 67482U 25313BE  26068.69721505  .00077178  00000+0  26504-2 0  9996
2 67482  97.3989 145.3568 0007208 335.3714  24.7181 15.29801687  7972
